GEESAT-2 01             
1 58905U 24023A   26195.89857009  .00000464  00000+0  83379-4 0  9994
2 58905  49.9938 225.7342 0004845 140.2734 219.8560 14.83333953133020
GEESAT-2 02             
1 58906U 24023B   26195.95098241  .00000446  00000+0  81430-4 0  9993
2 58906  49.9977 225.6550 0014317 106.0313 254.2203 14.83320856133038
GEESAT-2 03             
1 58907U 24023C   26195.94604402  .00000290  00000+0  46743-4 0  9990
2 58907  50.0005 192.8877 0005684 146.1328 213.9980 14.97185659133487
GEESAT-2 04             
1 58908U 24023D   26195.98484512  .00000289  00000+0  46575-4 0  9994
2 58908  49.9919 191.6613 0005853 149.8810 210.2472 14.97282565133499
GEESAT-2 05             
1 58909U 24023E   26195.91335715  .00000456  00000+0  82475-4 0  9993
2 58909  50.0038 225.9428 0010868 172.6334 187.4766 14.83340687133033
GEESAT-2 06             
1 58910U 24023F   26195.94523921  .00001592  00000+0  13201-3 0  9998
2 58910  49.9884 166.8152 0005382 165.6977 194.4123 15.04388020133827
GEESAT-2 07             
1 58911U 24023G   26195.94326098  .00000460  00000+0  83022-4 0  9997
2 58911  50.0048 226.2112 0010107 168.5516 191.5654 14.83335897133032
GEESAT-2 08             
1 58912U 24023H   26195.92820325  .00000544  00000+0  92953-4 0  9994
2 58912  49.9886 224.7209 0003450  93.4746 266.6587 14.83336429133035
GEESAT-2 09             
1 58913U 24023J   26195.90614921  .00000446  00000+0  81478-4 0  9997
2 58913  50.0024 225.8001 0021201 113.9353 246.3808 14.83353660133038
GEESAT-2 10             
1 58914U 24023K   26195.95817022  .00000466  00000+0  83700-4 0  9992
2 58914  49.9934 225.3540 0009288 104.3937 255.8033 14.83323093133034
GEESAT-2 11             
1 58915U 24023L   26195.92055943  .00000536  00000+0  92237-4 0  9999
2 58915  49.9990 225.5371 0019508 220.6415 139.3068 14.83342015133039
XINGSHIDAI 20           
1 58918U 24024B   26195.99318639  .00004114  00000+0  18990-3 0  9993
2 58918  97.3055 261.4981 0017629  58.0729 302.2219 15.20625526135573
NEXSAT-1                
1 58921U 24024E   26195.96582334  .00003943  00000+0  12255-3 0  9996
2 58921  97.3044 269.7154 0008503  28.9794 331.1920 15.33898428136159
2024-024F               
1 58922U 24024F   26196.00352363  .00004775  00000+0  20832-3 0  9994
2 58922  97.3019 259.7890 0010280 305.4533  54.5744 15.22572902135497
2024-024J               
1 58925U 24024J   26195.84497748  .00111233  00000+0  50951-3 0  9998
2 58925  97.3098 288.8320 0002895 245.8176 114.2791 15.83393950174075
PACE                    
1 58928U 24025A   26195.77859728  .00000186  00000+0  43115-4 0  9993
2 58928  98.0947 126.6875 0002528 136.2754 223.8650 14.65565827129974
COSMOS 2575             
1 58929U 24026A   26195.94905463  .00001309  00000+0  93991-5 0  9998
2 58929  96.6141  78.6775 0003249  96.5779 263.5858 15.75450834140007
STARLINK-31317          
1 58931U 24027A   26195.91104376  .00002646  00000+0  89490-4 0  9996
2 58931  53.1609  77.4777 0001963  97.6486 262.4739 15.34380779136662
STARLINK-31378          
1 58932U 24027B   26195.93815460  .00005902  00000+0  20194-3 0  9995
2 58932  53.1589  77.6452 0001656 108.2839 251.8342 15.31678618136821
STARLINK-31350          
1 58933U 24027C   26195.94094652  .00000125  00000+0  16347-4 0  9997
2 58933  53.1611  78.3718 0001373  89.9243 270.1916 15.30196144136819
STARLINK-31337          
1 58934U 24027D   26195.93778636 -.00002557  00000+0 -74263-4 0  9992
2 58934  53.1606  78.3517 0001026  86.5252 273.5866 15.30188097136818
STARLINK-31362          
1 58935U 24027E   26195.91999315 -.00005517  00000+0 -17454-3 0  9997
2 58935  53.1598  78.9522 0001241  97.0580 263.0562 15.30151375136806
STARLINK-31383          
1 58936U 24027F   26195.91888351  .00002164  00000+0  85134-4 0  9999
2 58936  53.1612  78.9426 0002155  78.3703 281.7540 15.30220103136800
STARLINK-31390          
1 58937U 24027G   26195.91467676  .00000884  00000+0  41977-4 0  9997
2 58937  53.1597  78.9169 0001300  94.4757 265.6392 15.30200182136807
STARLINK-31377          
1 58938U 24027H   26195.91784276  .00001418  00000+0  59988-4 0  9991
2 58938  53.1595  78.9359 0001252  89.6382 270.4762 15.30197457136808
STARLINK-31372          
1 58939U 24027J   26195.91152060  .00010614  00000+0  37053-3 0  9998
2 58939  53.1612  78.8955 0001957 107.3990 252.7225 15.30151048136808
STARLINK-31371          
1 58940U 24027K   26195.91045530  .00002152  00000+0  84758-4 0  9996
2 58940  53.1587  78.8914 0001209  94.8536 265.2603 15.30203847136806
STARLINK-31345          
1 58941U 24027L   26195.93989143  .00000028  00000+0  13095-4 0  9992
2 58941  53.1606  78.3616 0001459  99.1875 260.9291 15.30193834136814
STARLINK-31354          
1 58942U 24027M   26195.89623753  .00001633  00000+0  64366-4 0  9990
2 58942  53.1598  78.0945 0001172  91.6385 268.4751 15.31704432136819
STARLINK-31346          
1 58943U 24027N   26195.93514447  .00002941  00000+0  11138-3 0  9996
2 58943  53.1615  76.2185 0001133  98.6638 261.4491 15.30204686136843
