OBJECT_NAME,OBJECT_ID,EPOCH,MEAN_MOTION,ECCENTRICITY,INCLINATION,RA_OF_ASC_NODE,ARG_OF_PERICENTER,MEAN_ANOMALY,EPHEMERIS_TYPE,CLASSIFICATION_TYPE,NORAD_CAT_ID,ELEMENT_SET_NO,REV_AT_EPOCH,BSTAR,MEAN_MOTION_DOT,MEAN_MOTION_DDOT
GEESAT-2 01,2024-023A,2026-07-14T21:33:56.455776,14.83333953,.00048454,49.9938,225.7342,140.2734,219.8560,0,U,58905,999,13302,.83378535E-4,.464E-5,0
GEESAT-2 02,2024-023B,2026-07-14T22:49:24.880224,14.83320856,.00143172,49.9977,225.6550,106.0313,254.2203,0,U,58906,999,13303,.81429569E-4,.446E-5,0
GEESAT-2 03,2024-023C,2026-07-14T22:42:18.203328,14.97185659,.00056844,50.0005,192.8877,146.1328,213.9980,0,U,58907,999,13348,.46743166E-4,.29E-5,0
GEESAT-2 04,2024-023D,2026-07-14T23:38:10.618368,14.97282565,.00058534,49.9919,191.6613,149.8810,210.2472,0,U,58908,999,13349,.46574583E-4,.289E-5,0
GEESAT-2 05,2024-023E,2026-07-14T21:55:14.057760,14.83340687,.00108689,50.0038,225.9428,172.6334,187.4766,0,U,58909,999,13303,.82475488E-4,.456E-5,0
GEESAT-2 06,2024-023F,2026-07-14T22:41:08.667744,15.04388020,.00053826,49.9884,166.8152,165.6977,194.4123,0,U,58910,999,13382,.13200789E-3,.1592E-4,0
GEESAT-2 07,2024-023G,2026-07-14T22:38:17.748672,14.83335897,.00101078,50.0048,226.2112,168.5516,191.5654,0,U,58911,999,13303,.8302157E-4,.46E-5,0
GEESAT-2 08,2024-023H,2026-07-14T22:16:36.760800,14.83336429,.00034506,49.9886,224.7209,93.4746,266.6587,0,U,58912,999,13303,.9295276E-4,.544E-5,0
GEESAT-2 09,2024-023J,2026-07-14T21:44:51.291744,14.83353660,.00212013,50.0024,225.8001,113.9353,246.3808,0,U,58913,999,13303,.81478156E-4,.446E-5,0
GEESAT-2 10,2024-023K,2026-07-14T22:59:45.907008,14.83323093,.00092888,49.9934,225.3540,104.3937,255.8033,0,U,58914,999,13303,.83699592E-4,.466E-5,0
GEESAT-2 11,2024-023L,2026-07-14T22:05:36.334752,14.83342015,.0019508,49.9990,225.5371,220.6415,139.3068,0,U,58915,999,13303,.92237018E-4,.536E-5,0
XINGSHIDAI 20,2024-024B,2026-07-14T23:50:11.304096,15.20625526,.00176299,97.3055,261.4981,58.0729,302.2219,0,U,58918,999,13557,.18990126E-3,.4114E-4,0
NEXSAT-1,2024-024E,2026-07-14T23:10:47.136576,15.33898428,.00085033,97.3044,269.7154,28.9794,331.1920,0,U,58921,999,13615,.12254696E-3,.3943E-4,0
2024-024F,2024-024F,2026-07-15T00:05:04.441632,15.22572902,.00102802,97.3019,259.7890,305.4533,54.5744,0,U,58922,999,13549,.20832238E-3,.4775E-4,0
2024-024J,2024-024J,2026-07-14T20:16:46.054272,15.83393950,.00028959,97.3098,288.8320,245.8176,114.2791,0,U,58925,999,17407,.50951153E-3,.111233E-2,0
PACE,2024-025A,2026-07-14T18:41:10.804992,14.65565827,.00025286,98.0947,126.6875,136.2754,223.8650,0,U,58928,999,12997,.43114613E-4,.186E-5,0
COSMOS 2575,2024-026A,2026-07-14T22:46:38.320032,15.75450834,.00032497,96.6141,78.6775,96.5779,263.5858,0,U,58929,999,14000,.9399104E-5,.1309E-4,0
STARLINK-31317,2024-027A,2026-07-14T21:51:54.180864,15.34380779,.00019639,53.1609,77.4777,97.6486,262.4739,0,U,58931,999,13666,.89490486E-4,.2646E-4,0
STARLINK-31378,2024-027B,2026-07-14T22:30:56.557440,15.31678618,.00016562,53.1589,77.6452,108.2839,251.8342,0,U,58932,999,13682,.20194342E-3,.5902E-4,0
STARLINK-31350,2024-027C,2026-07-14T22:34:57.779328,15.30196144,.00013732,53.1611,78.3718,89.9243,270.1916,0,U,58933,999,13681,.16347003E-4,.125E-5,0
STARLINK-31337,2024-027D,2026-07-14T22:30:24.741504,15.30188097,.00010265,53.1606,78.3517,86.5252,273.5866,0,U,58934,999,13681,-.74263241E-4,-.2557E-4,0
STARLINK-31362,2024-027E,2026-07-14T22:04:47.408160,15.30151375,.00012417,53.1598,78.9522,97.0580,263.0562,0,U,58935,999,13680,-.17453631E-3,-.5517E-4,0
STARLINK-31383,2024-027F,2026-07-14T22:03:11.535264,15.30220103,.00021553,53.1612,78.9426,78.3703,281.7540,0,U,58936,999,13680,.85133712E-4,.2164E-4,0
STARLINK-31390,2024-027G,2026-07-14T21:57:08.072064,15.30200182,.00013008,53.1597,78.9169,94.4757,265.6392,0,U,58937,999,13680,.41977132E-4,.884E-5,0
STARLINK-31377,2024-027H,2026-07-14T22:01:41.614464,15.30197457,.00012524,53.1595,78.9359,89.6382,270.4762,0,U,58938,999,13680,.5998787E-4,.1418E-4,0
STARLINK-31372,2024-027J,2026-07-14T21:52:35.379840,15.30151048,.00019576,53.1612,78.8955,107.3990,252.7225,0,U,58939,999,13680,.3705321E-3,.10614E-3,0
STARLINK-31371,2024-027K,2026-07-14T21:51:03.337920,15.30203847,.00012099,53.1587,78.8914,94.8536,265.2603,0,U,58940,999,13680,.84757655E-4,.2152E-4,0
STARLINK-31345,2024-027L,2026-07-14T22:33:26.619552,15.30193834,.00014592,53.1606,78.3616,99.1875,260.9291,0,U,58941,999,13681,.13094676E-4,.28E-6,0
STARLINK-31354,2024-027M,2026-07-14T21:30:34.922592,15.31704432,.00011729,53.1598,78.0945,91.6385,268.4751,0,U,58942,999,13681,.64366306E-4,.1633E-4,0
STARLINK-31346,2024-027N,2026-07-14T22:26:36.482208,15.30204686,.00011338,53.1615,76.2185,98.6638,261.4491,0,U,58943,999,13684,.11138006E-3,.2941E-4,0
